OBJECT_NAME,OBJECT_ID,EPOCH,MEAN_MOTION,ECCENTRICITY,INCLINATION,RA_OF_ASC_NODE,ARG_OF_PERICENTER,MEAN_ANOMALY,EPHEMERIS_TYPE,CLASSIFICATION_TYPE,NORAD_CAT_ID,ELEMENT_SET_NO,REV_AT_EPOCH,BSTAR,MEAN_MOTION_DOT,MEAN_MOTION_DDOT
SWARM B,2013-067A,2026-07-21T15:10:59.606976,15.28745588,.00022536,87.7466,331.8542,90.2225,269.9283,0,U,39451,999,68850,.10808639E-3,.3053E-4,0
SWARM A,2013-067B,2026-07-21T14:28:36.379776,15.50688048,.00033446,87.3303,43.4412,90.2638,269.9006,0,U,39452,999,71158,.19563445E-3,.11269E-3,0
SWARM C,2013-067C,2026-07-21T14:28:09.989760,15.51540643,.00032909,87.3303,42.0223,91.0519,269.1120,0,U,39453,999,71154,.15660995E-3,.9306E-4,0
BRITE-CA1 (TORONTO),2014-033L,2026-07-21T08:23:05.265600,14.72731418,.00789328,97.9778,330.6555,166.5957,193.7373,0,U,40020,999,64724,.12831632E-3,.807E-5,0
OCO 2,2014-035A,2026-07-21T13:24:25.036704,14.57135565,.00014068,98.2020,143.3300,80.4885,279.6473,0,U,40059,999,64105,.68132958E-4,.262E-5,0
BRITE-PL2 (HEWELIUSZ),2014-049B,2026-07-21T13:59:14.648352,14.94699535,.001372,97.9121,314.8549,1.4208,358.7049,0,U,40119,999,64658,.13516696E-3,.1409E-4,0
MMS 1,2015-011A,2026-07-21T16:00:01.999584,0.28351032,.83029497,72.5510,348.3862,168.1626,215.7582,0,U,40482,999,137,0,-.1389E-4,0
MMS 2,2015-011B,2026-07-21T16:00:01.999584,0.28350983,.83057663,72.5550,348.3851,168.1653,215.7446,0,U,40483,999,137,0,-.139E-4,0
MMS 3,2015-011C,2026-07-21T16:00:01.999584,0.28350566,.83040552,72.5531,348.3971,168.1724,215.7206,0,U,40484,999,134,0,-.1388E-4,0
MMS 4,2015-011D,2026-07-21T16:00:01.999584,0.28350615,.83040099,72.5487,348.3805,168.1823,215.7168,0,U,40485,999,137,0,-.1389E-4,0
ASTROSAT,2015-052A,2026-07-21T14:27:03.291552,14.82558917,.00078458,5.9965,267.6345,170.3749,189.6529,0,U,40930,999,58494,.76235822E-4,.1298E-4,0
DAMPE,2015-078A,2026-07-21T14:47:34.060416,15.30862622,.00108485,97.4573,208.2557,321.5703,38.4764,0,U,41173,999,58981,.24655393E-4,.658E-5,0
PISAT,2016-059B,2026-07-21T09:43:55.451424,14.69037116,.00305764,97.8195,201.3909,95.9187,264.5506,0,U,41784,999,52476,.12200308E-3,.674E-5,0
HXMT (HUIYAN),2017-034A,2026-07-21T14:23:22.462656,15.18725137,.00314335,43.0152,351.3865,1.1532,358.9384,0,U,42758,999,50289,.18885536E-3,.3797E-4,0
FLYING LAPTOP,2017-042G,2026-07-21T15:28:53.775840,15.01338550,.00192945,97.4843,356.8887,12.0270,348.1412,0,U,42831,999,49162,.16849225E-3,.212E-4,0
ZHANGHENG 1-01 (CSES-1),2018-015C,2026-07-21T14:46:43.695264,15.20662354,.00168621,97.6902,8.9626,143.6031,216.6354,0,U,43194,999,46987,.28691441E-3,.6251E-4,0
SALSAT,2020-068K,2026-07-21T06:49:18.463008,15.30225780,.00098552,97.8867,207.4380,171.6754,188.4651,0,U,46495,999,32057,.19458409E-3,.5612E-4,0
IXPE,2021-121A,2026-07-21T16:00:01.999584,15.10524213,.00067828,0.2304,56.4608,242.8252,153.2195,0,U,49954,999,580,.56227083E-3,.10485E-3,0
SMILE,2026-109A,2026-07-13T23:01:31.580256,0.47500629,.83137076,70.0512,206.6048,286.9544,0.1879,0,U,69123,999,6,0,.936E-5,0
