{"epoch":1784710044,"count":18256,"objects":[{"id":"39451","name":"SWARM B","type":"PAYLOAD","l1":"1 39451U 13067A   26202.63263434  .00003053  00000-0  10809-3 0  9994","l2":"2 39451  87.7466 331.8542 0002254  90.2225 269.9283 15.28745588688500"},{"id":"39452","name":"SWARM A","type":"PAYLOAD","l1":"1 39452U 13067B   26202.60319884  .00011269  00000-0  19563-3 0  9997","l2":"2 39452  87.3303  43.4412 0003345  90.2638 269.9006 15.50688048711589"},{"id":"39453","name":"SWARM C","type":"PAYLOAD","l1":"1 39453U 13067C   26202.60289340  .00009306  00000-0  15661-3 0  9995","l2":"2 39453  87.3303  42.0223 0003291  91.0519 269.1120 15.51540643711546"},{"id":"40020","name":"BRITE TORONTO","type":"PAYLOAD","l1":"1 40020U 14033L   26202.34936650  .00000807  00000-0  12832-3 0  9999","l2":"2 40020  97.9778 330.6555 0078933 166.5957 193.7373 14.72731418647245"},{"id":"40059","name":"OCO 2","type":"PAYLOAD","l1":"1 40059U 14035A   26202.55862311  .00000262  00000-0  68133-4 0  9999","l2":"2 40059  98.2020 143.3300 0001407  80.4885 279.6473 14.57135565641056"},{"id":"40119","name":"BRITE-PL 2","type":"PAYLOAD","l1":"1 40119U 14049B   26202.58280843  .00001409  00000-0  13517-3 0  9997","l2":"2 40119  97.9121 314.8549 0013720   1.4208 358.7049 14.94699535646588"},{"id":"40482","name":"MMS 1","type":"PAYLOAD","l1":"1 40482U 15011A   26202.66668981 -.00001389  00000-0  00000-0 0  9990","l2":"2 40482  72.5510 348.3862 8302950 168.1626 215.7582  0.28351032  1376"},{"id":"40483","name":"MMS 2","type":"PAYLOAD","l1":"1 40483U 15011B   26202.66668981 -.00001390  00000-0  00000-0 0  9993","l2":"2 40483  72.5550 348.3851 8305766 168.1653 215.7446  0.28350983  1370"},{"id":"40484","name":"MMS 3","type":"PAYLOAD","l1":"1 40484U 15011C   26202.66668981 -.00001388  00000-0  00000-0 0  9991","l2":"2 40484  72.5531 348.3971 8304055 168.1724 215.7206  0.28350566  1340"},{"id":"40485","name":"MMS 4","type":"PAYLOAD","l1":"1 40485U 15011D   26202.66668981 -.00001389  00000-0  00000-0 0  9993","l2":"2 40485  72.5487 348.3805 8304010 168.1823 215.7168  0.28350615  1373"},{"id":"40930","name":"ASTROSAT","type":"PAYLOAD","l1":"1 40930U 15052A   26202.60212143  .00001298  00000-0  76236-4 0  9998","l2":"2 40930   5.9965 267.6345 0007846 170.3749 189.6529 14.82558917584941"},{"id":"41173","name":"DAMPE","type":"PAYLOAD","l1":"1 41173U 15078A   26202.61636644  .00000658  00000-0  24655-4 0  9990","l2":"2 41173  97.4573 208.2557 0010848 321.5703  38.4764 15.30862622589812"},{"id":"41784","name":"PISAT","type":"PAYLOAD","l1":"1 41784U 16059B   26202.40550291  .00000674  00000-0  12200-3 0  9998","l2":"2 41784  97.8195 201.3909 0030576  95.9187 264.5506 14.69037116524769"},{"id":"42758","name":"HXMT","type":"PAYLOAD","l1":"1 42758U 17034A   26202.59956554  .00003797  00000-0  18886-3 0  9991","l2":"2 42758  43.0152 351.3865 0031433   1.1532 358.9384 15.18725137502894"},{"id":"42831","name":"FLYING LAPTOP","type":"PAYLOAD","l1":"1 42831U 17042G   26202.64506685  .00002120  00000-0  16849-3 0  9990","l2":"2 42831  97.4843 356.8887 0019295  12.0270 348.1412 15.01338550491624"},{"id":"43194","name":"ZHANGHENG 1","type":"PAYLOAD","l1":"1 43194U 18015C   26202.61578351  .00006251  00000-0  28691-3 0  9997","l2":"2 43194  97.6902   8.9626 0016862 143.6031 216.6354 15.20662354469873"},{"id":"46495","name":"SALSAT","type":"PAYLOAD","l1":"1 46495U 20068K   26202.28424147  .00005612  00000-0  19458-3 0  9992","l2":"2 46495  97.8867 207.4380 0009855 171.6754 188.4651 15.30225780320570"},{"id":"49954","name":"IXPE","type":"PAYLOAD","l1":"1 49954U 21121A   26202.66668981  .00010485  00000-0  56227-3 0  9993","l2":"2 49954   0.2304  56.4608 0006783 242.8252 153.2195 15.10524213  5803"},{"id":"69123","name":"SMILE","type":"PAYLOAD","l1":"1 69123U 26109A   26194.95939329  .00000936  00000-0  00000-0 0  9998","l2":"2 69123  70.0512 206.6048 8313708 286.9544   0.1879  0.47500629    66"}]}